{
  "type": "FeatureCollection",
  "features": [
    {
      "type": "Feature",
      "properties": {
        "norad_id": 30066,
        "name": "FENGYUN 1C DEB",
        "group": "fengyun-1c-debris",
        "lat": -6.524435673696258,
        "lon": -24.300123530418716,
        "alt_km": 822.6774213418303,
        "timestamp": "2025-12-10T04:57:29.891876+00:00",
        "meta_object_name": "FENGYUN 1C DEB",
        "meta_object_id": "1999-025PT",
        "meta_epoch": "2025-12-09T18:00:52.930368",
        "meta_mean_motion": 14.19106069,
        "meta_eccentricity": 0.0116689,
        "meta_inclination": 98.634,
        "meta_ra_of_asc_node": 334.2599,
        "meta_arg_of_pericenter": 270.6018,
        "meta_mean_anomaly": 273.3825,
        "meta_ephemeris_type": 0,
        "meta_classification_type": "U",
        "meta_norad_cat_id": 30066,
        "meta_element_set_no": 999,
        "meta_rev_at_epoch": 97794,
        "meta_bstar": 0.00028966,
        "meta_mean_motion_dot": 6.04e-06,
        "meta_mean_motion_ddot": 0,
        "tle_line1": "1 30066U 99025PT  25343.75061262  .00000604  00000+0  28966-3 0  9999",
        "tle_line2": "2 30066  98.6340 334.2599 0116689 270.6018 273.3825 14.19106069977940"
      },
      "geometry": {
        "type": "Point",
        "coordinates": [
          -24.300123530418716,
          -6.524435673696258
        ]
      }
    },
    {
      "type": "Feature",
      "properties": {
        "norad_id": 30067,
        "name": "FENGYUN 1C DEB",
        "group": "fengyun-1c-debris",
        "lat": 51.13624979038297,
        "lon": -140.82460500025877,
        "alt_km": 644.2682545293501,
        "timestamp": "2025-12-10T04:57:29.891886+00:00",
        "meta_object_name": "FENGYUN 1C DEB",
        "meta_object_id": "1999-025PU",
        "meta_epoch": "2025-12-09T15:33:06.219360",
        "meta_mean_motion": 14.43671256,
        "meta_eccentricity": 0.0152058,
        "meta_inclination": 98.7653,
        "meta_ra_of_asc_node": 229.6382,
        "meta_arg_of_pericenter": 27.3119,
        "meta_mean_anomaly": 2.4386,
        "meta_ephemeris_type": 0,
        "meta_classification_type": "U",
        "meta_norad_cat_id": 30067,
        "meta_element_set_no": 999,
        "meta_rev_at_epoch": 99154,
        "meta_bstar": 0.00063855,
        "meta_mean_motion_dot": 2.442e-05,
        "meta_mean_motion_ddot": 0,
        "tle_line1": "1 30067U 99025PU  25343.64798865  .00002442  00000+0  63855-3 0  9992",
        "tle_line2": "2 30067  98.7653 229.6382 0152058  27.3119   2.4386 14.43671256991542"
      },
      "geometry": {
        "type": "Point",
        "coordinates": [
          -140.82460500025877,
          51.13624979038297
        ]
      }
    },
    {
      "type": "Feature",
      "properties": {
        "norad_id": 30068,
        "name": "FENGYUN 1C DEB",
        "group": "fengyun-1c-debris",
        "lat": -37.23348262354708,
        "lon": 145.36794818714418,
        "alt_km": 960.3908286151609,
        "timestamp": "2025-12-10T04:57:29.891896+00:00",
        "meta_object_name": "FENGYUN 1C DEB",
        "meta_object_id": "1999-025PV",
        "meta_epoch": "2025-12-09T17:43:10.644096",
        "meta_mean_motion": 14.12043433,
        "meta_eccentricity": 0.0190161,
        "meta_inclination": 98.7363,
        "meta_ra_of_asc_node": 331.6222,
        "meta_arg_of_pericenter": 357.3905,
        "meta_mean_anomaly": 2.6258,
        "meta_ephemeris_type": 0,
        "meta_classification_type": "U",
        "meta_norad_cat_id": 30068,
        "meta_element_set_no": 999,
        "meta_rev_at_epoch": 97301,
        "meta_bstar": 0.00036935,
        "meta_mean_motion_dot": 7.59e-06,
        "meta_mean_motion_ddot": 0,
        "tle_line1": "1 30068U 99025PV  25343.73831764  .00000759  00000+0  36935-3 0  9997",
        "tle_line2": "2 30068  98.7363 331.6222 0190161 357.3905   2.6258 14.12043433973012"
      },
      "geometry": {
        "type": "Point",
        "coordinates": [
          145.36794818714418,
          -37.23348262354708
        ]
      }
    },
    {
      "type": "Feature",
      "properties": {
        "norad_id": 30069,
        "name": "FENGYUN 1C DEB",
        "group": "fengyun-1c-debris",
        "lat": 2.775465163014386,
        "lon": -34.30027596881292,
        "alt_km": 858.4994980124875,
        "timestamp": "2025-12-10T04:57:29.891907+00:00",
        "meta_object_name": "FENGYUN 1C DEB",
        "meta_object_id": "1999-025PW",
        "meta_epoch": "2025-12-09T12:23:09.070080",
        "meta_mean_motion": 14.05220338,
        "meta_eccentricity": 0.00499952,
        "meta_inclination": 98.8009,
        "meta_ra_of_asc_node": 325.46,
        "meta_arg_of_pericenter": 62.0278,
        "meta_mean_anomaly": 50.1208,
        "meta_ephemeris_type": 0,
        "meta_classification_type": "U",
        "meta_norad_cat_id": 30069,
        "meta_element_set_no": 999,
        "meta_rev_at_epoch": 96801,
        "meta_bstar": 0.00032075827,
        "meta_mean_motion_dot": 4.82e-06,
        "meta_mean_motion_ddot": 0,
        "tle_line1": "1 30069U 99025PW  25343.51607720  .00000482  00000+0  32076-3 0  9992",
        "tle_line2": "2 30069  98.8009 325.4600 0049995  62.0278  50.1208 14.05220338968013"
      },
      "geometry": {
        "type": "Point",
        "coordinates": [
          -34.30027596881292,
          2.775465163014386
        ]
      }
    },
    {
      "type": "Feature",
      "properties": {
        "norad_id": 30070,
        "name": "FENGYUN 1C DEB",
        "group": "fengyun-1c-debris",
        "lat": 65.78163927744795,
        "lon": -117.06248700081197,
        "alt_km": 1049.1478204354544,
        "timestamp": "2025-12-10T04:57:29.891917+00:00",
        "meta_object_name": "FENGYUN 1C DEB",
        "meta_object_id": "1999-025PX",
        "meta_epoch": "2025-12-09T03:00:43.303680",
        "meta_mean_motion": 14.09858835,
        "meta_eccentricity": 0.0328362,
        "meta_inclination": 98.2865,
        "meta_ra_of_asc_node": 43.0347,
        "meta_arg_of_pericenter": 329.3985,
        "meta_mean_anomaly": 57.2744,
        "meta_ephemeris_type": 0,
        "meta_classification_type": "U",
        "meta_norad_cat_id": 30070,
        "meta_element_set_no": 999,
        "meta_rev_at_epoch": 95828,
        "meta_bstar": 0.0017200208,
        "meta_mean_motion_dot": 4.958e-05,
        "meta_mean_motion_ddot": 0,
        "tle_line1": "1 30070U 99025PX  25343.12550120  .00004958  00000+0  17200-2 0  9995",
        "tle_line2": "2 30070  98.2865  43.0347 0328362 329.3985  57.2744 14.09858835958286"
      },
      "geometry": {
        "type": "Point",
        "coordinates": [
          -117.06248700081197,
          65.78163927744795
        ]
      }
    },
    {
      "type": "Feature",
      "properties": {
        "norad_id": 30071,
        "name": "FENGYUN 1C DEB",
        "group": "fengyun-1c-debris",
        "lat": -52.12208491467427,
        "lon": 94.6869003686177,
        "alt_km": 753.5895968005143,
        "timestamp": "2025-12-10T04:57:29.891927+00:00",
        "meta_object_name": "FENGYUN 1C DEB",
        "meta_object_id": "1999-025PY",
        "meta_epoch": "2025-12-09T18:20:45.259008",
        "meta_mean_motion": 14.5204308,
        "meta_eccentricity": 0.0039611,
        "meta_inclination": 98.6582,
        "meta_ra_of_asc_node": 82.9345,
        "meta_arg_of_pericenter": 118.791,
        "meta_mean_anomaly": 38.2661,
        "meta_ephemeris_type": 0,
        "meta_classification_type": "U",
        "meta_norad_cat_id": 30071,
        "meta_element_set_no": 999,
        "meta_rev_at_epoch": 98183,
        "meta_bstar": 0.0039256,
        "meta_mean_motion_dot": 0.00016022,
        "meta_mean_motion_ddot": 0,
        "tle_line1": "1 30071U 99025PY  25343.76441272  .00016022  00000+0  39256-2 0  9993",
        "tle_line2": "2 30071  98.6582  82.9345 0039611 118.7910  38.2661 14.52043080981831"
      },
      "geometry": {
        "type": "Point",
        "coordinates": [
          94.6869003686177,
          -52.12208491467427
        ]
      }
    },
    {
      "type": "Feature",
      "properties": {
        "norad_id": 30072,
        "name": "FENGYUN 1C DEB",
        "group": "fengyun-1c-debris",
        "lat": 40.43928682795212,
        "lon": 124.50220366735424,
        "alt_km": 784.8743120422596,
        "timestamp": "2025-12-10T04:57:29.891937+00:00",
        "meta_object_name": "FENGYUN 1C DEB",
        "meta_object_id": "1999-025PZ",
        "meta_epoch": "2025-12-09T20:24:58.057344",
        "meta_mean_motion": 14.37689979,
        "meta_eccentricity": 0.0059403,
        "meta_inclination": 99.0773,
        "meta_ra_of_asc_node": 131.9575,
        "meta_arg_of_pericenter": 280.6908,
        "meta_mean_anomaly": 78.7591,
        "meta_ephemeris_type": 0,
        "meta_classification_type": "U",
        "meta_norad_cat_id": 30072,
        "meta_element_set_no": 999,
        "meta_rev_at_epoch": 97129,
        "meta_bstar": 0.0052851,
        "meta_mean_motion_dot": 0.00016202,
        "meta_mean_motion_ddot": 0,
        "tle_line1": "1 30072U 99025PZ  25343.85067196  .00016202  00000+0  52851-2 0  9999",
        "tle_line2": "2 30072  99.0773 131.9575 0059403 280.6908  78.7591 14.37689979971292"
      },
      "geometry": {
        "type": "Point",
        "coordinates": [
          124.50220366735424,
          40.43928682795212
        ]
      }
    }
  ]
}